{
  "type": "FeatureCollection",
  "features": [
    {
      "type": "Feature",
      "properties": {
        "norad_id": 41866,
        "name": "GOES 16",
        "group": "weather",
        "lat": 0.07772010389611547,
        "lon": 162.331304428818,
        "alt_km": 35789.97936309821,
        "timestamp": "2025-12-27T11:23:19.520570+00:00",
        "meta_object_name": "GOES 16",
        "meta_object_id": "2016-071A",
        "meta_epoch": "2025-12-27T04:27:00.371808",
        "meta_mean_motion": 1.00271577,
        "meta_eccentricity": 0.0003296,
        "meta_inclination": 0.0809,
        "meta_ra_of_asc_node": 100.6164,
        "meta_arg_of_pericenter": 167.6787,
        "meta_mean_anomaly": 149.7154,
        "meta_ephemeris_type": 0,
        "meta_classification_type": "U",
        "meta_norad_cat_id": 41866,
        "meta_element_set_no": 999,
        "meta_rev_at_epoch": 3337,
        "meta_bstar": 0,
        "meta_mean_motion_dot": -6.9e-07,
        "meta_mean_motion_ddot": 0,
        "tle_line1": "1 41866U 16071A   25361.18542097 -.00000069  00000+0  00000+0 0  9997",
        "tle_line2": "2 41866   0.0809 100.6164 0003296 167.6787 149.7154  1.00271577 33371"
      },
      "geometry": {
        "type": "Point",
        "coordinates": [
          162.331304428818,
          0.07772010389611547
        ]
      }
    },
    {
      "type": "Feature",
      "properties": {
        "norad_id": 41882,
        "name": "FENGYUN 4A",
        "group": "weather",
        "lat": -1.4718601744229496,
        "lon": 30.591213578595255,
        "alt_km": 35807.525698163074,
        "timestamp": "2025-12-27T11:23:19.520582+00:00",
        "meta_object_name": "FENGYUN 4A",
        "meta_object_id": "2016-077A",
        "meta_epoch": "2025-12-26T09:22:21.494784",
        "meta_mean_motion": 1.00262391,
        "meta_eccentricity": 0.0004534,
        "meta_inclination": 1.8816,
        "meta_ra_of_asc_node": 82.2577,
        "meta_arg_of_pericenter": 143.1389,
        "meta_mean_anomaly": 133.8992,
        "meta_ephemeris_type": 0,
        "meta_classification_type": "U",
        "meta_norad_cat_id": 41882,
        "meta_element_set_no": 999,
        "meta_rev_at_epoch": 3319,
        "meta_bstar": 0,
        "meta_mean_motion_dot": -3.36e-06,
        "meta_mean_motion_ddot": 0,
        "tle_line1": "1 41882U 16077A   25360.39052656 -.00000336  00000+0  00000+0 0  9997",
        "tle_line2": "2 41882   1.8816  82.2577 0004534 143.1389 133.8992  1.00262391 33190"
      },
      "geometry": {
        "type": "Point",
        "coordinates": [
          30.591213578595255,
          -1.4718601744229496
        ]
      }
    },
    {
      "type": "Feature",
      "properties": {
        "norad_id": 41884,
        "name": "CYGFM05",
        "group": "weather",
        "lat": 5.758712836051812,
        "lon": 122.54300716104382,
        "alt_km": 425.4312503781339,
        "timestamp": "2025-12-27T11:23:19.520594+00:00",
        "meta_object_name": "CYGFM05",
        "meta_object_id": "2016-078A",
        "meta_epoch": "2025-12-27T04:28:04.537632",
        "meta_mean_motion": 15.48195074,
        "meta_eccentricity": 0.0010291,
        "meta_inclination": 34.96,
        "meta_ra_of_asc_node": 312.7275,
        "meta_arg_of_pericenter": 307.1889,
        "meta_mean_anomaly": 52.7893,
        "meta_ephemeris_type": 0,
        "meta_classification_type": "U",
        "meta_norad_cat_id": 41884,
        "meta_element_set_no": 999,
        "meta_rev_at_epoch": 50200,
        "meta_bstar": 0.00044895,
        "meta_mean_motion_dot": 0.0002443,
        "meta_mean_motion_ddot": 0,
        "tle_line1": "1 41884U 16078A   25361.18616363  .00024430  00000+0  44895-3 0  9993",
        "tle_line2": "2 41884  34.9600 312.7275 0010291 307.1889  52.7893 15.48195074502000"
      },
      "geometry": {
        "type": "Point",
        "coordinates": [
          122.54300716104382,
          5.758712836051812
        ]
      }
    },
    {
      "type": "Feature",
      "properties": {
        "norad_id": 41885,
        "name": "CYGFM04",
        "group": "weather",
        "lat": -9.332822470062982,
        "lon": 118.80535681953319,
        "alt_km": 418.238849005902,
        "timestamp": "2025-12-27T11:23:19.520605+00:00",
        "meta_object_name": "CYGFM04",
        "meta_object_id": "2016-078B",
        "meta_epoch": "2025-12-27T02:49:19.249824",
        "meta_mean_motion": 15.50994926,
        "meta_eccentricity": 0.0008788,
        "meta_inclination": 34.9346,
        "meta_ra_of_asc_node": 287.5315,
        "meta_arg_of_pericenter": 331.5011,
        "meta_mean_anomaly": 28.523,
        "meta_ephemeris_type": 0,
        "meta_classification_type": "U",
        "meta_norad_cat_id": 41885,
        "meta_element_set_no": 999,
        "meta_rev_at_epoch": 50217,
        "meta_bstar": 0.00044934,
        "meta_mean_motion_dot": 0.00026999,
        "meta_mean_motion_ddot": 0,
        "tle_line1": "1 41885U 16078B   25361.11758391  .00026999  00000+0  44934-3 0  9991",
        "tle_line2": "2 41885  34.9346 287.5315 0008788 331.5011  28.5230 15.50994926502178"
      },
      "geometry": {
        "type": "Point",
        "coordinates": [
          118.80535681953319,
          -9.332822470062982
        ]
      }
    },
    {
      "type": "Feature",
      "properties": {
        "norad_id": 41886,
        "name": "CYGFM02",
        "group": "weather",
        "lat": -33.746231105545775,
        "lon": -149.78065534070294,
        "alt_km": 407.39348934871305,
        "timestamp": "2025-12-27T11:23:19.520616+00:00",
        "meta_object_name": "CYGFM02",
        "meta_object_id": "2016-078C",
        "meta_epoch": "2025-12-27T03:59:50.972352",
        "meta_mean_motion": 15.5242311,
        "meta_eccentricity": 0.0010354,
        "meta_inclination": 34.9434,
        "meta_ra_of_asc_node": 285.3465,
        "meta_arg_of_pericenter": 333.9201,
        "meta_mean_anomaly": 26.0999,
        "meta_ephemeris_type": 0,
        "meta_classification_type": "U",
        "meta_norad_cat_id": 41886,
        "meta_element_set_no": 999,
        "meta_rev_at_epoch": 50231,
        "meta_bstar": 0.00045944,
        "meta_mean_motion_dot": 0.0002909,
        "meta_mean_motion_ddot": 0,
        "tle_line1": "1 41886U 16078C   25361.16656218  .00029090  00000+0  45944-3 0  9999",
        "tle_line2": "2 41886  34.9434 285.3465 0010354 333.9201  26.0999 15.52423110502313"
      },
      "geometry": {
        "type": "Point",
        "coordinates": [
          -149.78065534070294,
          -33.746231105545775
        ]
      }
    },
    {
      "type": "Feature",
      "properties": {
        "norad_id": 41887,
        "name": "CYGFM01",
        "group": "weather",
        "lat": -31.374594900312545,
        "lon": -166.06442374755088,
        "alt_km": 418.37836303891436,
        "timestamp": "2025-12-27T11:23:19.520626+00:00",
        "meta_object_name": "CYGFM01",
        "meta_object_id": "2016-078D",
        "meta_epoch": "2025-12-27T04:08:44.941632",
        "meta_mean_motion": 15.48790077,
        "meta_eccentricity": 0.0010091,
        "meta_inclination": 34.9433,
        "meta_ra_of_asc_node": 315.062,
        "meta_arg_of_pericenter": 299.465,
        "meta_mean_anomaly": 60.5065,
        "meta_ephemeris_type": 0,
        "meta_classification_type": "U",
        "meta_norad_cat_id": 41887,
        "meta_element_set_no": 999,
        "meta_rev_at_epoch": 50194,
        "meta_bstar": 0.00043516,
        "meta_mean_motion_dot": 0.00024178,
        "meta_mean_motion_ddot": 0,
        "tle_line1": "1 41887U 16078D   25361.17274238  .00024178  00000+0  43516-3 0  9994",
        "tle_line2": "2 41887  34.9433 315.0620 0010091 299.4650  60.5065 15.48790077501948"
      },
      "geometry": {
        "type": "Point",
        "coordinates": [
          -166.06442374755088,
          -31.374594900312545
        ]
      }
    },
    {
      "type": "Feature",
      "properties": {
        "norad_id": 41888,
        "name": "CYGFM08",
        "group": "weather",
        "lat": -0.5120152970315988,
        "lon": -64.82962068454933,
        "alt_km": 409.1678485236398,
        "timestamp": "2025-12-27T11:23:19.520637+00:00",
        "meta_object_name": "CYGFM08",
        "meta_object_id": "2016-078E",
        "meta_epoch": "2025-12-27T03:39:50.071968",
        "meta_mean_motion": 15.50034752,
        "meta_eccentricity": 0.0011163,
        "meta_inclination": 34.9459,
        "meta_ra_of_asc_node": 298.0141,
        "meta_arg_of_pericenter": 323.1952,
        "meta_mean_anomaly": 36.8003,
        "meta_ephemeris_type": 0,
        "meta_classification_type": "U",
        "meta_norad_cat_id": 41888,
        "meta_element_set_no": 999,
        "meta_rev_at_epoch": 50217,
        "meta_bstar": 0.00045658,
        "meta_mean_motion_dot": 0.00026534,
        "meta_mean_motion_ddot": 0,
        "tle_line1": "1 41888U 16078E   25361.15266287  .00026534  00000+0  45658-3 0  9995",
        "tle_line2": "2 41888  34.9459 298.0141 0011163 323.1952  36.8003 15.50034752502174"
      },
      "geometry": {
        "type": "Point",
        "coordinates": [
          -64.82962068454933,
          -0.5120152970315988
        ]
      }
    }
  ]
}